STARLINK-32449          
1 61670U 24193K   26132.29056219  .00000230  00000+0  19897-4 0  9999
2 61670  53.1600 155.6295 0001280  96.8818 263.2329 15.30193082 86262
STARLINK-32453          
1 61671U 24193L   26132.27789458  .00000465  00000+0  27826-4 0  9997
2 61671  53.1598 155.5496 0001111  83.8116 276.3012 15.30195759 86268
STARLINK-32443          
1 61672U 24193M   26132.27578575  .00000512  00000+0  29422-4 0  9991
2 61672  53.1599 155.5359 0001066  80.6321 279.4800 15.30195319 86261
STARLINK-32417          
1 61673U 24193N   26132.27156458  .00000317  00000+0  22840-4 0  9994
2 61673  53.1594 155.5083 0001186  77.5075 282.6058 15.30191094 86262
STARLINK-32326          
1 61674U 24193P   26132.26945474  .00000294  00000+0  22036-4 0  9999
2 61674  53.1591 155.4949 0001010  70.4996 289.6114 15.30193311 86264
STARLINK-32294          
1 61675U 24193Q   26132.26629060  .00000342  00000+0  23688-4 0  9998
2 61675  53.1597 155.4757 0001138  73.4952 286.6174 15.30188310 86260
STARLINK-32309          
1 61676U 24193R   26132.25003472 -.00027541  00000+0 -82852-3 0  9990
2 61676  53.1602 155.3562 0001120  75.8604 292.9717 15.33572812  5768
STARLINK-32323          
1 61677U 24193S   26132.28311601 -.00000381  00000+0 -13741-6 0  9997
2 61677  53.1608 154.8721 0001591  76.4043 283.7137 15.34384058 86275
STARLINK-32363          
1 61678U 24193T   26132.27680262  .00000236  00000+0  18115-4 0  9994
2 61678  53.1603 154.8324 0001028  77.3988 282.7130 15.34389932 86271
STARLINK-32395          
1 61679U 24193U   26132.25268426 -.00000199  00000+0  53986-5 0  9992
2 61679  53.1595 156.0965 0001188  88.5222 271.5915 15.30187275 86256
STARLINK-32412          
1 61680U 24193V   26132.30286486 -.00000659  00000+0 -94615-5 0  9992
2 61680  53.1606 155.6984 0001103  81.3340 278.7787 15.31704509 86269
STARLINK-32426          
1 61681U 24193W   26132.24951829 -.00000026  00000+0  11265-4 0  9992
2 61681  53.1599 156.0756 0001471  85.0118 275.1051 15.30187401 86254
STARLINK-32429          
1 61682U 24193X   26132.26417605 -.00000042  00000+0  10701-4 0  9996
2 61682  53.1597 155.4532 0001120  76.6612 283.4514 15.30191782 86268
STARLINK-11335 [DTC]    
1 61687U 24195A   26132.26228997  .00001644  00000+0  18429-4 0  9990
2 61687  53.1600  73.2211 0000891 104.1816 255.9301 15.69697391 89019
STARLINK-11344 [DTC]    
1 61688U 24195B   26132.25738096  .00001082  00000+0  13791-4 0  9999
2 61688  53.1586  73.1898 0001098  71.4264 288.6873 15.69708512 89011
STARLINK-11312 [DTC]    
1 61689U 24195C   26132.12513777  .00001176  00000+0  14562-4 0  9994
2 61689  53.1580  73.7840 0001269  71.4295 288.6860 15.69711176 88995
STARLINK-11340 [DTC]    
1 61690U 24195D   26132.12021418  .00006504  00000+0  58432-4 0  9996
2 61690  53.1583  73.7543 0001124  80.7066 279.4079 15.69738460 88994
STARLINK-11339 [DTC]    
1 61691U 24195E   26132.23775966  .00002938  00000+0  29108-4 0  9998
2 61691  53.1583  73.0608 0001101  80.2219 279.8923 15.69699849 89013
STARLINK-11315 [DTC]    
1 61692U 24195F   26132.24266361  .00002797  00000+0  27933-4 0  9991
2 61692  53.1575  73.0917 0001156  92.9781 267.1369 15.69715112 89018
STARLINK-11366 [DTC]    
1 61693U 24195G   26132.10551480 -.00000895  00000+0 -25293-5 0  9993
2 61693  53.1585  73.6542 0001061  79.8253 280.2884 15.69711827 88996
STARLINK-11348 [DTC]    
1 61694U 24195H   26132.22794816 -.00003930  00000+0 -27577-4 0  9998
2 61694  53.1596  72.9918 0001103  33.8120 326.2968 15.69726534 89017
STARLINK-11327 [DTC]    
1 61695U 24195J   26132.09570443 -.00000614  00000+0 -21296-6 0  9992
2 61695  53.1585  73.5877 0000952  79.6735 280.4390 15.69709724 88996
STARLINK-11341 [DTC]    
1 61696U 24195K   26132.21813349  .00001365  00000+0  16121-4 0  9993
2 61696  53.1589  72.9264 0001039 103.4745 256.6389 15.69712499 89018
STARLINK-11346 [DTC]    
1 61697U 24195L   26132.08589004  .00006550  00000+0  58857-4 0  9990
2 61697  53.1568  73.5219 0001056 110.5305 249.5826 15.69717370 88999
STARLINK-11296 [DTC]    
1 61699U 24195N   26132.26708746 -.00000927  00000+0 -27998-5 0  9995
2 61699  53.1582  72.5152 0000698  80.1778 279.9318 15.69711779 89024
STARLINK-32349          
1 61700U 24195P   26131.41270358  .00000790  00000+0  38817-4 0  9994
2 61700  53.1602 224.0873 0000893  89.1274 270.9829 15.30187341 86789
STARLINK-32461          
1 61701U 24195Q   26132.27104706 -.00000396  00000+0 -59852-6 0  9991
2 61701  53.1616 219.4943 0001129 105.8168 254.2959 15.34396404 86923
STARLINK-32299          
1 61702U 24195R   26132.26262759  .00003454  00000+0  11332-3 0  9998
2 61702  53.1587 219.4405 0001036  84.5621 275.5500 15.34398144 86996
STARLINK-32335          
1 61703U 24195S   26132.25003472  .00329761  55883-4  68992-3 0  9993
2 61703  53.1335 193.9727 0014292 344.4530   8.0077 15.98299278  5713
STARLINK-32387          
1 61704U 24195T   26132.23738277 -.00000246  00000+0  38568-5 0  9999
2 61704  53.1615 219.2811 0001210  90.6652 269.4489 15.34391362 86921
