OBJECT_NAME,OBJECT_ID,EPOCH,MEAN_MOTION,ECCENTRICITY,INCLINATION,RA_OF_ASC_NODE,ARG_OF_PERICENTER,MEAN_ANOMALY,EPHEMERIS_TYPE,CLASSIFICATION_TYPE,NORAD_CAT_ID,ELEMENT_SET_NO,REV_AT_EPOCH,BSTAR,MEAN_MOTION_DOT,MEAN_MOTION_DDOT
STARLINK-32449,2024-193K,2026-05-12T06:58:24.573216,15.30193082,.00012804,53.1600,155.6295,96.8818,263.2329,0,U,61670,999,8626,.19896916E-4,.23E-5,0
STARLINK-32453,2024-193L,2026-05-12T06:40:10.091712,15.30195759,.00011119,53.1598,155.5496,83.8116,276.3012,0,U,61671,999,8626,.27826488E-4,.465E-5,0
STARLINK-32443,2024-193M,2026-05-12T06:37:07.888800,15.30195319,.00010669,53.1599,155.5359,80.6321,279.4800,0,U,61672,999,8626,.2942155E-4,.512E-5,0
STARLINK-32417,2024-193N,2026-05-12T06:31:03.179712,15.30191094,.00011862,53.1594,155.5083,77.5075,282.6058,0,U,61673,999,8626,.22840242E-4,.317E-5,0
STARLINK-32326,2024-193P,2026-05-12T06:28:00.889536,15.30193311,.00010107,53.1591,155.4949,70.4996,289.6114,0,U,61674,999,8626,.22035922E-4,.294E-5,0
STARLINK-32294,2024-193Q,2026-05-12T06:23:27.507840,15.30188310,.00011387,53.1597,155.4757,73.4952,286.6174,0,U,61675,999,8626,.23687778E-4,.342E-5,0
STARLINK-32309,2024-193R,2026-05-12T06:00:02.999808,15.33572812,.00011207,53.1602,155.3562,75.8604,292.9717,0,U,61676,999,576,-.82851686E-3,-.27541E-3,0
STARLINK-32323,2024-193S,2026-05-12T06:47:41.223264,15.34384058,.00015919,53.1608,154.8721,76.4043,283.7137,0,U,61677,999,8627,-.137414E-6,-.381E-5,0
STARLINK-32363,2024-193T,2026-05-12T06:38:35.746368,15.34389932,.00010281,53.1603,154.8324,77.3988,282.7130,0,U,61678,999,8627,.18115299E-4,.236E-5,0
STARLINK-32395,2024-193U,2026-05-12T06:03:51.920064,15.30187275,.00011882,53.1595,156.0965,88.5222,271.5915,0,U,61679,999,8625,.5398558E-5,-.199E-5,0
STARLINK-32412,2024-193V,2026-05-12T07:16:07.523904,15.31704509,.00011035,53.1606,155.6984,81.3340,278.7787,0,U,61680,999,8626,-.9461499E-5,-.659E-5,0
STARLINK-32426,2024-193W,2026-05-12T05:59:18.380256,15.30187401,.00014714,53.1599,156.0756,85.0118,275.1051,0,U,61681,999,8625,.11264989E-4,-.26E-6,0
STARLINK-32429,2024-193X,2026-05-12T06:20:24.810720,15.30191782,.00011204,53.1597,155.4532,76.6612,283.4514,0,U,61682,999,8626,.10700881E-4,-.42E-6,0
STARLINK-11335 [DTC],2024-195A,2026-05-12T06:17:41.853408,15.69697391,.0000891,53.1600,73.2211,104.1816,255.9301,0,U,61687,999,8901,.18428546E-4,.1644E-4,0
STARLINK-11344 [DTC],2024-195B,2026-05-12T06:10:37.714944,15.69708512,.00010985,53.1586,73.1898,71.4264,288.6873,0,U,61688,999,8901,.13791106E-4,.1082E-4,0
STARLINK-11312 [DTC],2024-195C,2026-05-12T03:00:11.903328,15.69711176,.00012691,53.1580,73.7840,71.4295,288.6860,0,U,61689,999,8899,.14561738E-4,.1176E-4,0
STARLINK-11340 [DTC],2024-195D,2026-05-12T02:53:06.505152,15.69738460,.00011246,53.1583,73.7543,80.7066,279.4079,0,U,61690,999,8899,.58432149E-4,.6504E-4,0
STARLINK-11339 [DTC],2024-195E,2026-05-12T05:42:22.434624,15.69699849,.0001101,53.1583,73.0608,80.2219,279.8923,0,U,61691,999,8901,.29108084E-4,.2938E-4,0
STARLINK-11315 [DTC],2024-195F,2026-05-12T05:49:26.135904,15.69715112,.00011561,53.1575,73.0917,92.9781,267.1369,0,U,61692,999,8901,.27932818E-4,.2797E-4,0
STARLINK-11366 [DTC],2024-195G,2026-05-12T02:31:56.478720,15.69711827,.00010617,53.1585,73.6542,79.8253,280.2884,0,U,61693,999,8899,-.2529311E-5,-.895E-5,0
STARLINK-11348 [DTC],2024-195H,2026-05-12T05:28:14.721024,15.69726534,.00011033,53.1596,72.9918,33.8120,326.2968,0,U,61694,999,8901,-.27576575E-4,-.393E-4,0
STARLINK-11327 [DTC],2024-195J,2026-05-12T02:17:48.862752,15.69709724,.00009523,53.1585,73.5877,79.6735,280.4390,0,U,61695,999,8899,-.212961E-6,-.614E-5,0
STARLINK-11341 [DTC],2024-195K,2026-05-12T05:14:06.733536,15.69712499,.00010396,53.1589,72.9264,103.4745,256.6389,0,U,61696,999,8901,.16120975E-4,.1365E-4,0
STARLINK-11346 [DTC],2024-195L,2026-05-12T02:03:40.899456,15.69717370,.00010568,53.1568,73.5219,110.5305,249.5826,0,U,61697,999,8899,.58857468E-4,.655E-4,0
STARLINK-11296 [DTC],2024-195N,2026-05-12T06:24:36.356544,15.69711779,.0000698,53.1582,72.5152,80.1778,279.9318,0,U,61699,999,8902,-.2799801E-5,-.927E-5,0
STARLINK-32349,2024-195P,2026-05-11T09:54:17.589312,15.30187341,.00008933,53.1602,224.0873,89.1274,270.9829,0,U,61700,999,8678,.38817082E-4,.79E-5,0
STARLINK-32461,2024-195Q,2026-05-12T06:30:18.465984,15.34396404,.00011291,53.1616,219.4943,105.8168,254.2959,0,U,61701,999,8692,-.598523E-6,-.396E-5,0
STARLINK-32299,2024-195R,2026-05-12T06:18:11.023776,15.34398144,.00010365,53.1587,219.4405,84.5621,275.5500,0,U,61702,999,8699,.11331749E-3,.3454E-4,0
STARLINK-32335,2024-195S,2026-05-12T06:00:02.999808,15.98299278,.00142921,53.1335,193.9727,344.4530,8.0077,0,U,61703,999,571,.68992431E-3,.329761E-2,.55882894E-4
STARLINK-32387,2024-195T,2026-05-12T05:41:49.871328,15.34391362,.00012101,53.1615,219.2811,90.6652,269.4489,0,U,61704,999,8692,.3856756E-5,-.246E-5,0
